STARLINK-11143 [DTC]    
1 59953U 24107J   25254.18373048 -.00004054  00000+0 -28615-4 0  9997
2 59953  53.1598  56.0822 0000672  89.1632 270.9463 15.69715447 73955
STARLINK-11133 [DTC]    
1 59954U 24107K   25254.17882685 -.00004587  00000+0 -33025-4 0  9991
2 59954  53.1600  56.0498 0000613  72.3179 287.7905 15.69716199 73956
STARLINK-11144 [DTC]    
1 59955U 24107L   25254.17392947 -.00002902  00000+0 -19117-4 0  9994
2 59955  53.1601  56.0218 0000601  78.6175 281.4911 15.69706287 74013
STARLINK-11134 [DTC]    
1 59956U 24107M   25254.16902224 -.00002995  00000+0 -19867-4 0  9993
2 59956  53.1592  55.9836 0001527  53.3520 306.7638 15.69705437 73886
STARLINK-11142 [DTC]    
1 59957U 24107N   25253.84576709 -.00004792  00000+0 -34712-4 0  9996
2 59957  53.1595  57.5207 0000875  96.7390 263.3727 15.69714012 73911
STARLINK-31995          
1 59958U 24107P   25254.18155065 -.00003988  00000+0 -12261-3 0  9993
2 59958  53.1620 179.2827 0001990  59.7082 300.4115 15.30190370 71114
STARLINK-31989          
1 59959U 24107Q   25254.17521690 -.00001397  00000+0 -35084-4 0  9995
2 59959  53.1601 179.2433 0001019 107.9054 252.2058 15.30182977 72311
STARLINK-31856          
1 59960U 24107R   25254.17837784 -.00001107  00000+0 -25266-4 0  9991
2 59960  53.1605 179.2626 0000696  82.3543 277.7537 15.30185250 72311
STARLINK-31993          
1 59961U 24107S   25254.05725236 -.00000592  00000+0 -78856-5 0  9998
2 59961  53.1612 179.9272 0000894  76.9892 283.1208 15.30189768 72235
STARLINK-31980          
1 59962U 24107T   25254.19526434 -.00001040  00000+0 -22995-4 0  9994
2 59962  53.1615 179.3644 0001310  84.2317 275.8833 15.30184836 72316
STARLINK-31991          
1 59963U 24107U   25254.18469979 -.00012479  00000+0 -40947-3 0  9998
2 59963  53.1603 179.2995 0001112  41.4557 318.6528 15.30234466 72315
STARLINK-31979          
1 59964U 24107V   25254.19209849 -.00000439  00000+0 -27058-5 0  9991
2 59964  53.1611 179.3458 0001193  70.8353 289.2777 15.30183341 72267
STARLINK-31978          
1 60016U 24111A   25254.23526422 -.00001090  00000+0 -24687-4 0  9998
2 60016  53.1589 189.5013 0001216  74.6628 285.4507 15.30193321 71452
STARLINK-31987          
1 60017U 24111B   25254.22889910  .00003135  00000+0  11787-3 0  9998
2 60017  53.1595 189.4624 0001402  72.9955 287.1200 15.30217438 71510
STARLINK-31984          
1 60018U 24111C   25254.09091229  .00000622  00000+0  33124-4 0  9990
2 60018  53.1606 190.0191 0001560  95.8019 264.3160 15.30192249 71380
STARLINK-31986          
1 60019U 24111D   25254.21205160 -.00000778  00000+0 -14131-4 0  9997
2 60019  53.1604 189.3537 0001521  88.3539 271.7636 15.30180852 71562
