[{"OBJECT_NAME":"STARLINK-11143 [DTC]","OBJECT_ID":"2024-107J","EPOCH":"2025-09-11T04:24:34.313472","MEAN_MOTION":15.69715447,"ECCENTRICITY":6.727e-5,"INCLINATION":53.1598,"RA_OF_ASC_NODE":56.0822,"ARG_OF_PERICENTER":89.1632,"MEAN_ANOMALY":270.9463,"EPHEMERIS_TYPE":0,"CLASSIFICATION_TYPE":"U","NORAD_CAT_ID":59953,"ELEMENT_SET_NO":999,"REV_AT_EPOCH":7395,"BSTAR":-2.8615068e-5,"MEAN_MOTION_DOT":-4.054e-5,"MEAN_MOTION_DDOT":0},{"OBJECT_NAME":"STARLINK-11133 [DTC]","OBJECT_ID":"2024-107K","EPOCH":"2025-09-11T04:17:30.639840","MEAN_MOTION":15.69716199,"ECCENTRICITY":6.134e-5,"INCLINATION":53.16,"RA_OF_ASC_NODE":56.0498,"ARG_OF_PERICENTER":72.3179,"MEAN_ANOMALY":287.7905,"EPHEMERIS_TYPE":0,"CLASSIFICATION_TYPE":"U","NORAD_CAT_ID":59954,"ELEMENT_SET_NO":999,"REV_AT_EPOCH":7395,"BSTAR":-3.3024691e-5,"MEAN_MOTION_DOT":-4.587e-5,"MEAN_MOTION_DDOT":0},{"OBJECT_NAME":"STARLINK-11144 [DTC]","OBJECT_ID":"2024-107L","EPOCH":"2025-09-11T04:10:27.506208","MEAN_MOTION":15.69706287,"ECCENTRICITY":6.013e-5,"INCLINATION":53.1601,"RA_OF_ASC_NODE":56.0218,"ARG_OF_PERICENTER":78.6175,"MEAN_ANOMALY":281.4911,"EPHEMERIS_TYPE":0,"CLASSIFICATION_TYPE":"U","NORAD_CAT_ID":59955,"ELEMENT_SET_NO":999,"REV_AT_EPOCH":7401,"BSTAR":-1.9117483e-5,"MEAN_MOTION_DOT":-2.902e-5,"MEAN_MOTION_DDOT":0},{"OBJECT_NAME":"STARLINK-11134 [DTC]","OBJECT_ID":"2024-107M","EPOCH":"2025-09-11T04:03:23.521536","MEAN_MOTION":15.69705437,"ECCENTRICITY":0.00015277,"INCLINATION":53.1592,"RA_OF_ASC_NODE":55.9836,"ARG_OF_PERICENTER":53.352,"MEAN_ANOMALY":306.7638,"EPHEMERIS_TYPE":0,"CLASSIFICATION_TYPE":"U","NORAD_CAT_ID":59956,"ELEMENT_SET_NO":999,"REV_AT_EPOCH":7388,"BSTAR":-1.9866679e-5,"MEAN_MOTION_DOT":-2.995e-5,"MEAN_MOTION_DDOT":0},{"OBJECT_NAME":"STARLINK-11142 [DTC]","OBJECT_ID":"2024-107N","EPOCH":"2025-09-10T20:17:54.276576","MEAN_MOTION":15.69714012,"ECCENTRICITY":8.753e-5,"INCLINATION":53.1595,"RA_OF_ASC_NODE":57.5207,"ARG_OF_PERICENTER":96.739,"MEAN_ANOMALY":263.3727,"EPHEMERIS_TYPE":0,"CLASSIFICATION_TYPE":"U","NORAD_CAT_ID":59957,"ELEMENT_SET_NO":999,"REV_AT_EPOCH":7391,"BSTAR":-3.4711996e-5,"MEAN_MOTION_DOT":-4.792e-5,"MEAN_MOTION_DDOT":0},{"OBJECT_NAME":"STARLINK-31995","OBJECT_ID":"2024-107P","EPOCH":"2025-09-11T04:21:25.976160","MEAN_MOTION":15.3019037,"ECCENTRICITY":0.00019906,"INCLINATION":53.162,"RA_OF_ASC_NODE":179.2827,"ARG_OF_PERICENTER":59.7082,"MEAN_ANOMALY":300.4115,"EPHEMERIS_TYPE":0,"CLASSIFICATION_TYPE":"U","NORAD_CAT_ID":59958,"ELEMENT_SET_NO":999,"REV_AT_EPOCH":7111,"BSTAR":-0.00012260895,"MEAN_MOTION_DOT":-3.988e-5,"MEAN_MOTION_DDOT":0},{"OBJECT_NAME":"STARLINK-31989","OBJECT_ID":"2024-107Q","EPOCH":"2025-09-11T04:12:18.740160","MEAN_MOTION":15.30182977,"ECCENTRICITY":0.00010194,"INCLINATION":53.1601,"RA_OF_ASC_NODE":179.2433,"ARG_OF_PERICENTER":107.9054,"MEAN_ANOMALY":252.2058,"EPHEMERIS_TYPE":0,"CLASSIFICATION_TYPE":"U","NORAD_CAT_ID":59959,"ELEMENT_SET_NO":999,"REV_AT_EPOCH":7231,"BSTAR":-3.5083887e-5,"MEAN_MOTION_DOT":-1.397e-5,"MEAN_MOTION_DDOT":0},{"OBJECT_NAME":"STARLINK-31856","OBJECT_ID":"2024-107R","EPOCH":"2025-09-11T04:16:51.845376","MEAN_MOTION":15.3018525,"ECCENTRICITY":6.968e-5,"INCLINATION":53.1605,"RA_OF_ASC_NODE":179.2626,"ARG_OF_PERICENTER":82.3543,"MEAN_ANOMALY":277.7537,"EPHEMERIS_TYPE":0,"CLASSIFICATION_TYPE":"U","NORAD_CAT_ID":59960,"ELEMENT_SET_NO":999,"REV_AT_EPOCH":7231,"BSTAR":-2.5265943e-5,"MEAN_MOTION_DOT":-1.107e-5,"MEAN_MOTION_DDOT":0},{"OBJECT_NAME":"STARLINK-31993","OBJECT_ID":"2024-107S","EPOCH":"2025-09-11T01:22:26.603904","MEAN_MOTION":15.30189768,"ECCENTRICITY":8.945e-5,"INCLINATION":53.1612,"RA_OF_ASC_NODE":179.9272,"ARG_OF_PERICENTER":76.9892,"MEAN_ANOMALY":283.1208,"EPHEMERIS_TYPE":0,"CLASSIFICATION_TYPE":"U","NORAD_CAT_ID":59961,"ELEMENT_SET_NO":999,"REV_AT_EPOCH":7223,"BSTAR":-7.885611e-6,"MEAN_MOTION_DOT":-5.92e-6,"MEAN_MOTION_DDOT":0},{"OBJECT_NAME":"STARLINK-31980","OBJECT_ID":"2024-107T","EPOCH":"2025-09-11T04:41:10.838976","MEAN_MOTION":15.30184836,"ECCENTRICITY":0.00013101,"INCLINATION":53.1615,"RA_OF_ASC_NODE":179.3644,"ARG_OF_PERICENTER":84.2317,"MEAN_ANOMALY":275.8833,"EPHEMERIS_TYPE":0,"CLASSIFICATION_TYPE":"U","NORAD_CAT_ID":59962,"ELEMENT_SET_NO":999,"REV_AT_EPOCH":7231,"BSTAR":-2.2994591e-5,"MEAN_MOTION_DOT":-1.04e-5,"MEAN_MOTION_DDOT":0},{"OBJECT_NAME":"STARLINK-31991","OBJECT_ID":"2024-107U","EPOCH":"2025-09-11T04:25:58.061856","MEAN_MOTION":15.30234466,"ECCENTRICITY":0.00011125,"INCLINATION":53.1603,"RA_OF_ASC_NODE":179.2995,"ARG_OF_PERICENTER":41.4557,"MEAN_ANOMALY":318.6528,"EPHEMERIS_TYPE":0,"CLASSIFICATION_TYPE":"U","NORAD_CAT_ID":59963,"ELEMENT_SET_NO":999,"REV_AT_EPOCH":7231,"BSTAR":-0.00040947196,"MEAN_MOTION_DOT":-0.00012479,"MEAN_MOTION_DDOT":0},{"OBJECT_NAME":"STARLINK-31979","OBJECT_ID":"2024-107V","EPOCH":"2025-09-11T04:36:37.309536","MEAN_MOTION":15.30183341,"ECCENTRICITY":0.00011934,"INCLINATION":53.1611,"RA_OF_ASC_NODE":179.3458,"ARG_OF_PERICENTER":70.8353,"MEAN_ANOMALY":289.2777,"EPHEMERIS_TYPE":0,"CLASSIFICATION_TYPE":"U","NORAD_CAT_ID":59964,"ELEMENT_SET_NO":999,"REV_AT_EPOCH":7226,"BSTAR":-2.705796e-6,"MEAN_MOTION_DOT":-4.39e-6,"MEAN_MOTION_DDOT":0},{"OBJECT_NAME":"STARLINK-31978","OBJECT_ID":"2024-111A","EPOCH":"2025-09-11T05:38:46.828608","MEAN_MOTION":15.30193321,"ECCENTRICITY":0.00012162,"INCLINATION":53.1589,"RA_OF_ASC_NODE":189.5013,"ARG_OF_PERICENTER":74.6628,"MEAN_ANOMALY":285.4507,"EPHEMERIS_TYPE":0,"CLASSIFICATION_TYPE":"U","NORAD_CAT_ID":60016,"ELEMENT_SET_NO":999,"REV_AT_EPOCH":7145,"BSTAR":-2.468687e-5,"MEAN_MOTION_DOT":-1.09e-5,"MEAN_MOTION_DDOT":0},{"OBJECT_NAME":"STARLINK-31987","OBJECT_ID":"2024-111B","EPOCH":"2025-09-11T05:29:36.882240","MEAN_MOTION":15.30217438,"ECCENTRICITY":0.00014026,"INCLINATION":53.1595,"RA_OF_ASC_NODE":189.4624,"ARG_OF_PERICENTER":72.9955,"MEAN_ANOMALY":287.12,"EPHEMERIS_TYPE":0,"CLASSIFICATION_TYPE":"U","NORAD_CAT_ID":60017,"ELEMENT_SET_NO":999,"REV_AT_EPOCH":7151,"BSTAR":0.00011787078,"MEAN_MOTION_DOT":3.135e-5,"MEAN_MOTION_DDOT":0},{"OBJECT_NAME":"STARLINK-31984","OBJECT_ID":"2024-111C","EPOCH":"2025-09-11T02:10:54.821856","MEAN_MOTION":15.30192249,"ECCENTRICITY":0.000156,"INCLINATION":53.1606,"RA_OF_ASC_NODE":190.0191,"ARG_OF_PERICENTER":95.8019,"MEAN_ANOMALY":264.316,"EPHEMERIS_TYPE":0,"CLASSIFICATION_TYPE":"U","NORAD_CAT_ID":60018,"ELEMENT_SET_NO":999,"REV_AT_EPOCH":7138,"BSTAR":3.3124056e-5,"MEAN_MOTION_DOT":6.22e-6,"MEAN_MOTION_DDOT":0},{"OBJECT_NAME":"STARLINK-31986","OBJECT_ID":"2024-111D","EPOCH":"2025-09-11T05:05:21.258240","MEAN_MOTION":15.30180852,"ECCENTRICITY":0.00015219,"INCLINATION":53.1604,"RA_OF_ASC_NODE":189.3537,"ARG_OF_PERICENTER":88.3539,"MEAN_ANOMALY":271.7636,"EPHEMERIS_TYPE":0,"CLASSIFICATION_TYPE":"U","NORAD_CAT_ID":60019,"ELEMENT_SET_NO":999,"REV_AT_EPOCH":7156,"BSTAR":-1.4131152e-5,"MEAN_MOTION_DOT":-7.78e-6,"MEAN_MOTION_DDOT":0}]
